STARLINK-35393          
1 65827U 25221E   26068.44899472  .00022317  00000+0  76321-3 0  9995
2 65827  53.1596  89.6657 0001398  94.3604 265.7557 15.30205542 26043
KUIPER-00222            
1 67782U 26030U   26068.67636257  .00055223  00000+0  17317-2 0  9992
2 67782  51.8817 219.7147 0012800  40.1845 320.0084 15.32445377  5087
